{"type": "FeatureCollection", "features": [ {"type": "Feature", "properties": {"norad_id": 52912, "name": "GAOFEN-12 03", "group": "resource", "lat": 79.69936987613674, "lon": -165.39593184721662, "alt_km": 622.0188266470432, "timestamp": "2025-12-22T20:43:45.500647+00:00", "meta": {"OBJECT_NAME": "GAOFEN-12 03", "OBJECT_ID": "2022-069A", "EPOCH": "2025-12-22T15:29:06.936288", "MEAN_MOTION": 14.79629348, "ECCENTRICITY": 0.00018666, "INCLINATION": 97.8485, "RA_OF_ASC_NODE": 243.7648, "ARG_OF_PERICENTER": 51.1886, "MEAN_ANOMALY": 308.9492, "EPHEMERIS_TYPE": 0, "CLASSIFICATION_TYPE": "U", "NORAD_CAT_ID": 52912, "ELEMENT_SET_NO": 999, "REV_AT_EPOCH": 18850, "BSTAR": 0.00011164932, "MEAN_MOTION_DOT": 7.86e-06, "MEAN_MOTION_DDOT": 0}, "tle": {"line1": "1 52912U 22069A   25356.64521917  .00000786  00000+0  11165-3 0  9991", "line2": "2 52912  97.8485 243.7648 0001866  51.1886 308.9492 14.79629348188506"}}, "geometry": {"type": "Point", "coordinates": [-165.39593184721662, 79.69936987613674]}}, {"type": "Feature", "properties": {"norad_id": 54754, "name": "SWOT", "group": "resource", "lat": 49.73753018498877, "lon": -71.63409602979735, "alt_km": 888.2582047655123, "timestamp": "2025-12-22T20:43:45.500657+00:00", "meta": {"OBJECT_NAME": "SWOT", "OBJECT_ID": "2022-173A", "EPOCH": "2025-12-22T11:54:36.963360", "MEAN_MOTION": 14.00168259, "ECCENTRICITY": 3.778e-05, "INCLINATION": 77.6109, "RA_OF_ASC_NODE": 273.8198, "ARG_OF_PERICENTER": 84.4487, "MEAN_ANOMALY": 275.6708, "EPHEMERIS_TYPE": 0, "CLASSIFICATION_TYPE": "U", "NORAD_CAT_ID": 54754, "ELEMENT_SET_NO": 999, "REV_AT_EPOCH": 15442, "BSTAR": 2.3585108e-05, "MEAN_MOTION_DOT": 3.2e-07, "MEAN_MOTION_DDOT": 0}, "tle": {"line1": "1 54754U 22173A   25356.49626115  .00000032  00000+0  23585-4 0  9996", "line2": "2 54754  77.6109 273.8198 0000377  84.4487 275.6708 14.00168259154424"}}, "geometry": {"type": "Point", "coordinates": [-71.63409602979735, 49.73753018498877]}}, {"type": "Feature", "properties": {"norad_id": 57654, "name": "GAOFEN-12 04", "group": "resource", "lat": -74.31583444377972, "lon": 62.77619254646627, "alt_km": 638.35210016357, "timestamp": "2025-12-22T20:43:45.500667+00:00", "meta": {"OBJECT_NAME": "GAOFEN-12 04", "OBJECT_ID": "2023-123A", "EPOCH": "2025-12-22T14:42:19.362240", "MEAN_MOTION": 14.79726731, "ECCENTRICITY": 0.000121, "INCLINATION": 97.9128, "RA_OF_ASC_NODE": 272.2204, "ARG_OF_PERICENTER": 78.0741, "MEAN_ANOMALY": 282.0606, "EPHEMERIS_TYPE": 0, "CLASSIFICATION_TYPE": "U", "NORAD_CAT_ID": 57654, "ELEMENT_SET_NO": 999, "REV_AT_EPOCH": 12651, "BSTAR": 0.00016411933, "MEAN_MOTION_DOT": 1.182e-05, "MEAN_MOTION_DDOT": 0}, "tle": {"line1": "1 57654U 23123A   25356.61272410  .00001182  00000+0  16412-3 0  9990", "line2": "2 57654  97.9128 272.2204 0001210  78.0741 282.0606 14.79726731126511"}}, "geometry": {"type": "Point", "coordinates": [62.77619254646627, -74.31583444377972]}}, {"type": "Feature", "properties": {"norad_id": 59065, "name": "PARS 1", "group": "resource", "lat": 5.850867696734023, "lon": -32.75731888744688, "alt_km": 438.3171235956188, "timestamp": "2025-12-22T20:43:45.500677+00:00", "meta": {"OBJECT_NAME": "PARS 1", "OBJECT_ID": "2024-039Q", "EPOCH": "2025-12-22T14:28:14.951712", "MEAN_MOTION": 15.41186059, "ECCENTRICITY": 0.00118334, "INCLINATION": 97.4649, "RA_OF_ASC_NODE": 327.7461, "ARG_OF_PERICENTER": 42.2576, "MEAN_ANOMALY": 317.958, "EPHEMERIS_TYPE": 0, "CLASSIFICATION_TYPE": "U", "NORAD_CAT_ID": 59065, "ELEMENT_SET_NO": 999, "REV_AT_EPOCH": 10140, "BSTAR": 0.0003010763, "MEAN_MOTION_DOT": 0.00012438, "MEAN_MOTION_DDOT": 0}, "tle": {"line1": "1 59065U 24039Q   25356.60295083  .00012438  00000+0  30108-3 0  9999", "line2": "2 59065  97.4649 327.7461 0011833  42.2576 317.9580 15.41186059101407"}}, "geometry": {"type": "Point", "coordinates": [-32.75731888744688, 5.850867696734023]}}, {"type": "Feature", "properties": {"norad_id": 59371, "name": "RESURS-P 4", "group": "resource", "lat": -1.9823068800286328, "lon": 122.7341157842938, "alt_km": 472.9789833898549, "timestamp": "2025-12-22T20:43:45.500687+00:00", "meta": {"OBJECT_NAME": "RESURS-P 4", "OBJECT_ID": "2024-061A", "EPOCH": "2025-12-22T15:14:08.746080", "MEAN_MOTION": 15.32159186, "ECCENTRICITY": 9.225e-05, "INCLINATION": 97.2563, "RA_OF_ASC_NODE": 302.7625, "ARG_OF_PERICENTER": 69.6501, "MEAN_ANOMALY": 290.484, "EPHEMERIS_TYPE": 0, "CLASSIFICATION_TYPE": "U", "NORAD_CAT_ID": 59371, "ELEMENT_SET_NO": 999, "REV_AT_EPOCH": 9672, "BSTAR": 0.00013263983, "MEAN_MOTION_DOT": 4.042e-05, "MEAN_MOTION_DDOT": 0}, "tle": {"line1": "1 59371U 24061A   25356.63482345  .00004042  00000+0  13264-3 0  9992", "line2": "2 59371  97.2563 302.7625 0000922  69.6501 290.4840 15.32159186 96726"}}, "geometry": {"type": "Point", "coordinates": [122.7341157842938, -1.9823068800286328]}}, {"type": "Feature", "properties": {"norad_id": 59625, "name": "LEGION 1", "group": "resource", "lat": -19.459110192624355, "lon": -111.25919305426126, "alt_km": 520.6286812044291, "timestamp": "2025-12-22T20:43:45.500697+00:00", "meta": {"OBJECT_NAME": "LEGION 1", "OBJECT_ID": "2024-081A", "EPOCH": "2025-12-22T13:31:04.084608", "MEAN_MOTION": 15.16569802, "ECCENTRICITY": 0.00036183, "INCLINATION": 97.5202, "RA_OF_ASC_NODE": 71.1181, "ARG_OF_PERICENTER": 271.8866, "MEAN_ANOMALY": 88.1953, "EPHEMERIS_TYPE": 0, "CLASSIFICATION_TYPE": "U", "NORAD_CAT_ID": 59625, "ELEMENT_SET_NO": 999, "REV_AT_EPOCH": 9076, "BSTAR": 0.00027733051, "MEAN_MOTION_DOT": 5.347e-05, "MEAN_MOTION_DDOT": 0}, "tle": {"line1": "1 59625U 24081A   25356.56324172  .00005347  00000+0  27733-3 0  9996", "line2": "2 59625  97.5202  71.1181 0003618 271.8866  88.1953 15.16569802 90768"}}, "geometry": {"type": "Point", "coordinates": [-111.25919305426126, -19.459110192624355]}}, {"type": "Feature", "properties": {"norad_id": 59626, "name": "LEGION 2", "group": "resource", "lat": 19.55358850198871, "lon": 68.81452548697406, "alt_km": 518.8873921448403, "timestamp": "2025-12-22T20:43:45.500707+00:00", "meta": {"OBJECT_NAME": "LEGION 2", "OBJECT_ID": "2024-081B", "EPOCH": "2025-12-22T11:08:29.277600", "MEAN_MOTION": 15.16583054, "ECCENTRICITY": 0.00056768, "INCLINATION": 97.5205, "RA_OF_ASC_NODE": 71.1078, "ARG_OF_PERICENTER": 251.4807, "MEAN_ANOMALY": 108.5809, "EPHEMERIS_TYPE": 0, "CLASSIFICATION_TYPE": "U", "NORAD_CAT_ID": 59626, "ELEMENT_SET_NO": 999, "REV_AT_EPOCH": 9075, "BSTAR": 0.00025776137, "MEAN_MOTION_DOT": 4.967e-05, "MEAN_MOTION_DDOT": 0}, "tle": {"line1": "1 59626U 24081B   25356.46422775  .00004967  00000+0  25776-3 0  9996", "line2": "2 59626  97.5205  71.1078 0005676 251.4807 108.5809 15.16583054 90753"}}, "geometry": {"type": "Point", "coordinates": [68.81452548697406, 19.55358850198871]}}, {"type": "Feature", "properties": {"norad_id": 60182, "name": "ALOS-4 (DAICHI-4)", "group": "resource", "lat": 51.01275185127823, "lon": -78.52721027286864, "alt_km": 625.4571286434611, "timestamp": "2025-12-22T20:43:45.500717+00:00", "meta": {"OBJECT_NAME": "ALOS-4 (DAICHI-4)", "OBJECT_ID": "2024-123A", "EPOCH": "2025-12-20T19:27:23.067360", "MEAN_MOTION": 14.79476697, "ECCENTRICITY": 0.00013881, "INCLINATION": 97.9224, "RA_OF_ASC_NODE": 89.5428, "ARG_OF_PERICENTER": 101.339, "MEAN_ANOMALY": 258.7977, "EPHEMERIS_TYPE": 0, "CLASSIFICATION_TYPE": "U", "NORAD_CAT_ID": 60182, "ELEMENT_SET_NO": 999, "REV_AT_EPOCH": 7950, "BSTAR": 0.00018374076, "MEAN_MOTION_DOT": 1.321e-05, "MEAN_MOTION_DDOT": 0}, "tle": {"line1": "1 60182U 24123A   25354.81068365  .00001321  00000+0  18374-3 0  9997", "line2": "2 60182  97.9224  89.5428 0001388 101.3390 258.7977 14.79476697 79501"}}, "geometry": {"type": "Point", "coordinates": [-78.52721027286864, 51.01275185127823]}}, {"type": "Feature", "properties": {"norad_id": 60452, "name": "LEGION 3", "group": "resource", "lat": 30.49945056526223, "lon": 39.74008882552942, "alt_km": 518.9802981116445, "timestamp": "2025-12-22T20:43:45.500727+00:00", "meta": {"OBJECT_NAME": "LEGION 3", "OBJECT_ID": "2024-146A", "EPOCH": "2025-12-22T13:48:46.214496", "MEAN_MOTION": 15.15855127, "ECCENTRICITY": 0.00157138, "INCLINATION": 45.001, "RA_OF_ASC_NODE": 257.4019, "ARG_OF_PERICENTER": 251.3084, "MEAN_ANOMALY": 108.6089, "EPHEMERIS_TYPE": 0, "CLASSIFICATION_TYPE": "U", "NORAD_CAT_ID": 60452, "ELEMENT_SET_NO": 999, "REV_AT_EPOCH": 7522, "BSTAR": 0.00024207637, "MEAN_MOTION_DOT": 4.458e-05, "MEAN_MOTION_DDOT": 0}, "tle": {"line1": "1 60452U 24146A   25356.57553489  .00004458  00000+0  24208-3 0  9990", "line2": "2 60452  45.0010 257.4019 0015713 251.3084 108.6089 15.15855127 75225"}}, "geometry": {"type": "Point", "coordinates": [39.74008882552942, 30.49945056526223]}}, {"type": "Feature", "properties": {"norad_id": 60453, "name": "LEGION 4", "group": "resource", "lat": 30.973965023086095, "lon": 130.777406077264, "alt_km": 516.9630186746335, "timestamp": "2025-12-22T20:43:45.500737+00:00", "meta": {"OBJECT_NAME": "LEGION 4", "OBJECT_ID": "2024-146B", "EPOCH": "2025-12-22T10:39:19.162656", "MEAN_MOTION": 15.15920037, "ECCENTRICITY": 0.00084575, "INCLINATION": 45.0393, "RA_OF_ASC_NODE": 349.8859, "ARG_OF_PERICENTER": 4.1914, "MEAN_ANOMALY": 355.9035, "EPHEMERIS_TYPE": 0, "CLASSIFICATION_TYPE": "U", "NORAD_CAT_ID": 60453, "ELEMENT_SET_NO": 999, "REV_AT_EPOCH": 7405, "BSTAR": 0.00030737211, "MEAN_MOTION_DOT": 5.734e-05, "MEAN_MOTION_DDOT": 0}, "tle": {"line1": "1 60453U 24146B   25356.44397179  .00005734  00000+0  30737-3 0  9991", "line2": "2 60453  45.0393 349.8859 0008457   4.1914 355.9035 15.15920037 74052"}}, "geometry": {"type": "Point", "coordinates": [130.777406077264, 30.973965023086095]}}]}